STARLINK-36239          
1 67196U 25304E   26015.81788492  .00020953  00000+0  48008-3 0  9995
2 67196  70.0004 312.6240 0003290 267.0315  93.0491 15.42741336  5847
STARLINK-36283          
1 67197U 25304F   26015.83337963  .00025925  00000+0  59341-3 0  9997
2 67197  70.0006 312.3763 0003052 266.7028 359.3859 15.42711160  5949
STARLINK-36267          
1 67198U 25304G   26015.80167345  .00017740  00000+0  40720-3 0  9997
2 67198  70.0006 312.5645 0003616 267.8964  92.1803 15.42735632  5815
STARLINK-36268          
1 67199U 25304H   26015.83337963 -.01631611  00000+0 -39941-1 0  9999
2 67199  70.0012 312.2725 0003326 249.9646 105.4771 15.43887611  5947
STARLINK-36270          
1 67200U 25304J   26015.82202859  .00026037  00000+0  59533-3 0  9994
2 67200  70.0004 312.6385 0003224 270.7689  89.3123 15.42742256  5847
STARLINK-36262          
1 67201U 25304K   26015.81392251  .00028866  00000+0  65931-3 0  9991
2 67201  70.0004 312.6088 0003345 270.7218  89.3581 15.42746430  5846
STARLINK-36263          
1 67202U 25304L   26015.80581894  .00026357  00000+0  60261-3 0  9998
2 67202  70.0007 312.5792 0003322 271.6556  88.4245 15.42740919  5844
STARLINK-36224          
1 67203U 25304M   26015.79771350  .00022325  00000+0  51117-3 0  9996
2 67203  70.0007 312.5494 0003353 268.5033  91.5765 15.42742061  5845
STARLINK-36185          
1 67204U 25304N   26015.83337963  .00023396  00000+0  53604-3 0  9992
2 67204  70.0007 312.4019 0002977 266.8410 336.2485 15.42711995  5940
STARLINK-36197          
1 67205U 25304P   26015.83337963  .00026720  00000+0  61150-3 0  9992
2 67205  70.0006 312.3507 0003774 262.7398  25.3674 15.42706702  5910
STARLINK-36056          
1 67206U 25304Q   26015.83337963  .00026071  00000+0  59668-3 0  9993
2 67206  70.0011 312.3004 0002894 262.2010  70.8757 15.42714412  5911
STARLINK-36225          
1 67207U 25304R   26014.28008191 -.00156470  00000+0 -26193-2 0  9995
2 67207  70.0004 316.4781 0002921 294.7758  65.3125 15.52217682  5614
