CCSDS_OMM_VERS = 2.0
CREATION_DATE  = 
ORIGINATOR     = 

OBJECT_NAME    = STARLINK-36239
OBJECT_ID      = 2025-304E
CENTER_NAME    = EARTH
REF_FRAME      = TEME
TIME_SYSTEM    = UTC
MEAN_ELEMENT_THEORY = SGP/SGP4

EPOCH          = 2026-01-15T19:37:45.257088
MEAN_MOTION    = 15.42741336
ECCENTRICITY   = .000329
INCLINATION    = 70.0004
RA_OF_ASC_NODE = 312.6240
ARG_OF_PERICENTER = 267.0315
MEAN_ANOMALY   = 93.0491

EPHEMERIS_TYPE = 0
CLASSIFICATION_TYPE = U
NORAD_CAT_ID   = 67196
ELEMENT_SET_NO = 999
REV_AT_EPOCH   = 584
BSTAR          = .48008E-3
MEAN_MOTION_DOT = .20953E-3
MEAN_MOTION_DDOT = 0

CCSDS_OMM_VERS = 2.0
CREATION_DATE  = 
ORIGINATOR     = 

OBJECT_NAME    = STARLINK-36283
OBJECT_ID      = 2025-304F
CENTER_NAME    = EARTH
REF_FRAME      = TEME
TIME_SYSTEM    = UTC
MEAN_ELEMENT_THEORY = SGP/SGP4

EPOCH          = 2026-01-15T20:00:04.000032
MEAN_MOTION    = 15.42711160
ECCENTRICITY   = .0003052
INCLINATION    = 70.0006
RA_OF_ASC_NODE = 312.3763
ARG_OF_PERICENTER = 266.7028
MEAN_ANOMALY   = 359.3859

EPHEMERIS_TYPE = 0
CLASSIFICATION_TYPE = U
NORAD_CAT_ID   = 67197
ELEMENT_SET_NO = 999
REV_AT_EPOCH   = 594
BSTAR          = .59341E-3
MEAN_MOTION_DOT = .25925E-3
MEAN_MOTION_DDOT = 0

CCSDS_OMM_VERS = 2.0
CREATION_DATE  = 
ORIGINATOR     = 

OBJECT_NAME    = STARLINK-36267
OBJECT_ID      = 2025-304G
CENTER_NAME    = EARTH
REF_FRAME      = TEME
TIME_SYSTEM    = UTC
MEAN_ELEMENT_THEORY = SGP/SGP4

EPOCH          = 2026-01-15T19:14:24.586080
MEAN_MOTION    = 15.42735632
ECCENTRICITY   = .0003616
INCLINATION    = 70.0006
RA_OF_ASC_NODE = 312.5645
ARG_OF_PERICENTER = 267.8964
MEAN_ANOMALY   = 92.1803

EPHEMERIS_TYPE = 0
CLASSIFICATION_TYPE = U
NORAD_CAT_ID   = 67198
ELEMENT_SET_NO = 999
REV_AT_EPOCH   = 581
BSTAR          = .4072E-3
MEAN_MOTION_DOT = .1774E-3
MEAN_MOTION_DDOT = 0

CCSDS_OMM_VERS = 2.0
CREATION_DATE  = 
ORIGINATOR     = 

OBJECT_NAME    = STARLINK-36268
OBJECT_ID      = 2025-304H
CENTER_NAME    = EARTH
REF_FRAME      = TEME
TIME_SYSTEM    = UTC
MEAN_ELEMENT_THEORY = SGP/SGP4

EPOCH          = 2026-01-15T20:00:04.000032
MEAN_MOTION    = 15.43887611
ECCENTRICITY   = .0003326
INCLINATION    = 70.0012
RA_OF_ASC_NODE = 312.2725
ARG_OF_PERICENTER = 249.9646
MEAN_ANOMALY   = 105.4771

EPHEMERIS_TYPE = 0
CLASSIFICATION_TYPE = U
NORAD_CAT_ID   = 67199
ELEMENT_SET_NO = 999
REV_AT_EPOCH   = 594
BSTAR          = -.39941E-1
MEAN_MOTION_DOT = -.1631611E-1
MEAN_MOTION_DDOT = 0

CCSDS_OMM_VERS = 2.0
CREATION_DATE  = 
ORIGINATOR     = 

OBJECT_NAME    = STARLINK-36270
OBJECT_ID      = 2025-304J
CENTER_NAME    = EARTH
REF_FRAME      = TEME
TIME_SYSTEM    = UTC
MEAN_ELEMENT_THEORY = SGP/SGP4

EPOCH          = 2026-01-15T19:43:43.270176
MEAN_MOTION    = 15.42742256
ECCENTRICITY   = .0003224
INCLINATION    = 70.0004
RA_OF_ASC_NODE = 312.6385
ARG_OF_PERICENTER = 270.7689
MEAN_ANOMALY   = 89.3123

EPHEMERIS_TYPE = 0
CLASSIFICATION_TYPE = U
NORAD_CAT_ID   = 67200
ELEMENT_SET_NO = 999
REV_AT_EPOCH   = 584
BSTAR          = .59533E-3
MEAN_MOTION_DOT = .26037E-3
MEAN_MOTION_DDOT = 0

CCSDS_OMM_VERS = 2.0
CREATION_DATE  = 
ORIGINATOR     = 

OBJECT_NAME    = STARLINK-36262
OBJECT_ID      = 2025-304K
CENTER_NAME    = EARTH
REF_FRAME      = TEME
TIME_SYSTEM    = UTC
MEAN_ELEMENT_THEORY = SGP/SGP4

EPOCH          = 2026-01-15T19:32:02.904864
MEAN_MOTION    = 15.42746430
ECCENTRICITY   = .0003345
INCLINATION    = 70.0004
RA_OF_ASC_NODE = 312.6088
ARG_OF_PERICENTER = 270.7218
MEAN_ANOMALY   = 89.3581

EPHEMERIS_TYPE = 0
CLASSIFICATION_TYPE = U
NORAD_CAT_ID   = 67201
ELEMENT_SET_NO = 999
REV_AT_EPOCH   = 584
BSTAR          = .65931E-3
MEAN_MOTION_DOT = .28866E-3
MEAN_MOTION_DDOT = 0

CCSDS_OMM_VERS = 2.0
CREATION_DATE  = 
ORIGINATOR     = 

OBJECT_NAME    = STARLINK-36263
OBJECT_ID      = 2025-304L
CENTER_NAME    = EARTH
REF_FRAME      = TEME
TIME_SYSTEM    = UTC
MEAN_ELEMENT_THEORY = SGP/SGP4

EPOCH          = 2026-01-15T19:20:22.756416
MEAN_MOTION    = 15.42740919
ECCENTRICITY   = .0003322
INCLINATION    = 70.0007
RA_OF_ASC_NODE = 312.5792
ARG_OF_PERICENTER = 271.6556
MEAN_ANOMALY   = 88.4245

EPHEMERIS_TYPE = 0
CLASSIFICATION_TYPE = U
NORAD_CAT_ID   = 67202
ELEMENT_SET_NO = 999
REV_AT_EPOCH   = 584
BSTAR          = .60261E-3
MEAN_MOTION_DOT = .26357E-3
MEAN_MOTION_DDOT = 0

CCSDS_OMM_VERS = 2.0
CREATION_DATE  = 
ORIGINATOR     = 

OBJECT_NAME    = STARLINK-36224
OBJECT_ID      = 2025-304M
CENTER_NAME    = EARTH
REF_FRAME      = TEME
TIME_SYSTEM    = UTC
MEAN_ELEMENT_THEORY = SGP/SGP4

EPOCH          = 2026-01-15T19:08:42.446400
MEAN_MOTION    = 15.42742061
ECCENTRICITY   = .0003353
INCLINATION    = 70.0007
RA_OF_ASC_NODE = 312.5494
ARG_OF_PERICENTER = 268.5033
MEAN_ANOMALY   = 91.5765

EPHEMERIS_TYPE = 0
CLASSIFICATION_TYPE = U
NORAD_CAT_ID   = 67203
ELEMENT_SET_NO = 999
REV_AT_EPOCH   = 584
BSTAR          = .51117E-3
MEAN_MOTION_DOT = .22325E-3
MEAN_MOTION_DDOT = 0

CCSDS_OMM_VERS = 2.0
CREATION_DATE  = 
ORIGINATOR     = 

OBJECT_NAME    = STARLINK-36185
OBJECT_ID      = 2025-304N
CENTER_NAME    = EARTH
REF_FRAME      = TEME
TIME_SYSTEM    = UTC
MEAN_ELEMENT_THEORY = SGP/SGP4

EPOCH          = 2026-01-15T20:00:04.000032
MEAN_MOTION    = 15.42711995
ECCENTRICITY   = .0002977
INCLINATION    = 70.0007
RA_OF_ASC_NODE = 312.4019
ARG_OF_PERICENTER = 266.8410
MEAN_ANOMALY   = 336.2485

EPHEMERIS_TYPE = 0
CLASSIFICATION_TYPE = U
NORAD_CAT_ID   = 67204
ELEMENT_SET_NO = 999
REV_AT_EPOCH   = 594
BSTAR          = .53604E-3
MEAN_MOTION_DOT = .23396E-3
MEAN_MOTION_DDOT = 0

CCSDS_OMM_VERS = 2.0
CREATION_DATE  = 
ORIGINATOR     = 

OBJECT_NAME    = STARLINK-36197
OBJECT_ID      = 2025-304P
CENTER_NAME    = EARTH
REF_FRAME      = TEME
TIME_SYSTEM    = UTC
MEAN_ELEMENT_THEORY = SGP/SGP4

EPOCH          = 2026-01-15T20:00:04.000032
MEAN_MOTION    = 15.42706702
ECCENTRICITY   = .0003774
INCLINATION    = 70.0006
RA_OF_ASC_NODE = 312.3507
ARG_OF_PERICENTER = 262.7398
MEAN_ANOMALY   = 25.3674

EPHEMERIS_TYPE = 0
CLASSIFICATION_TYPE = U
NORAD_CAT_ID   = 67205
ELEMENT_SET_NO = 999
REV_AT_EPOCH   = 591
BSTAR          = .6115E-3
MEAN_MOTION_DOT = .2672E-3
MEAN_MOTION_DDOT = 0

CCSDS_OMM_VERS = 2.0
CREATION_DATE  = 
ORIGINATOR     = 

OBJECT_NAME    = STARLINK-36056
OBJECT_ID      = 2025-304Q
CENTER_NAME    = EARTH
REF_FRAME      = TEME
TIME_SYSTEM    = UTC
MEAN_ELEMENT_THEORY = SGP/SGP4

EPOCH          = 2026-01-15T20:00:04.000032
MEAN_MOTION    = 15.42714412
ECCENTRICITY   = .0002894
INCLINATION    = 70.0011
RA_OF_ASC_NODE = 312.3004
ARG_OF_PERICENTER = 262.2010
MEAN_ANOMALY   = 70.8757

EPHEMERIS_TYPE = 0
CLASSIFICATION_TYPE = U
NORAD_CAT_ID   = 67206
ELEMENT_SET_NO = 999
REV_AT_EPOCH   = 591
BSTAR          = .59668E-3
MEAN_MOTION_DOT = .26071E-3
MEAN_MOTION_DDOT = 0

CCSDS_OMM_VERS = 2.0
CREATION_DATE  = 
ORIGINATOR     = 

OBJECT_NAME    = STARLINK-36225
OBJECT_ID      = 2025-304R
CENTER_NAME    = EARTH
REF_FRAME      = TEME
TIME_SYSTEM    = UTC
MEAN_ELEMENT_THEORY = SGP/SGP4

EPOCH          = 2026-01-14T06:43:19.077024
MEAN_MOTION    = 15.52217682
ECCENTRICITY   = .00029218
INCLINATION    = 70.0004
RA_OF_ASC_NODE = 316.4781
ARG_OF_PERICENTER = 294.7758
MEAN_ANOMALY   = 65.3125

EPHEMERIS_TYPE = 0
CLASSIFICATION_TYPE = U
NORAD_CAT_ID   = 67207
ELEMENT_SET_NO = 999
REV_AT_EPOCH   = 561
BSTAR          = -.26192985E-2
MEAN_MOTION_DOT = -.15647E-2
MEAN_MOTION_DDOT = 0

